NORAD_CAT_ID,OBJECT_NAME,OBJECT_TYPE,EPOCH,MEAN_MOTION,ECCENTRICITY,INCLINATION,RA_OF_ASC_NODE,ARG_OF_PERICENTER,MEAN_ANOMALY,BSTAR,MEAN_MOTION_DOT,MEAN_MOTION_DDOT,TLE_LINE0,TLE_LINE1,TLE_LINE2,SEMIMAJOR_AXIS,PERIOD,APOGEE,PERIGEE,DECAYED
55286.0,STARLINK-5338,PAYLOAD,2023-06-20 06:50:51,14.993024,0.0003049,69.9981,9.3073,274.2708,85.8103,0.00012443,1.429e-05,0.0,0 STARLINK-5338,1 55286U 23010T   23171.28532351  .00001429  00000-0  12443-3 0  9998,2 55286  69.9981   9.3073 0003049 274.2708  85.8103 14.99302400 24461,6947.187,96.045,571.171,566.934,0.0
55286.0,STARLINK-5338,PAYLOAD,2023-06-20 18:03:22,14.99300368,0.0002919,69.9984,8.1282,274.926,85.1566,2.3992e-05,2e-06,0.0,0 STARLINK-5338,1 55286U 23010T   23171.75234534  .00000200  00000-0  23992-4 0  9990,2 55286  69.9984   8.1282 0002919 274.9260  85.1566 14.99300368 24229,6947.194,96.045,571.087,567.031,0.0
55286.0,STARLINK-5338,PAYLOAD,2023-06-20 21:15:31,14.99302044,0.0003078,69.9982,7.7909,273.6763,86.4045,1.3821e-05,7.5e-07,0.0,0 STARLINK-5338,1 55286U 23010T   23171.88577770  .00000075  00000-0  13821-4 0  9996,2 55286  69.9982   7.7909 0003078 273.6763  86.4045 14.99302044 24554,6947.189,96.045,571.192,566.915,0.0
55286.0,STARLINK-5338,PAYLOAD,2023-06-21 13:16:14,14.99302587,0.0003071,69.9982,6.1057,273.0342,87.0467,-6.4739e-05,-8.86e-06,0.0,0 STARLINK-5338,1 55286U 23010T   23172.55294592 -.00000886  00000-0 -64739-4 0  9995,2 55286  69.9982   6.1057 0003071 273.0342  87.0467 14.99302587 24659,6947.187,96.045,571.185,566.918,0.0
55286.0,STARLINK-5338,PAYLOAD,2023-06-21 19:40:31,14.99308071,0.0003094,69.9983,5.4318,271.986,88.0945,-9.5382e-05,-1.261e-05,0.0,0 STARLINK-5338,1 55286U 23010T   23172.81980982 -.00001261  00000-0 -95382-4 0  9995,2 55286  69.9983   5.4318 0003094 271.9860  88.0945 14.99308071 24385,6947.17,96.044,571.184,566.885,0.0
55286.0,STARLINK-5338,PAYLOAD,2023-06-22 19:41:36,14.99300691,0.0003067,69.9985,2.9047,274.0669,86.014,8.2411e-06,7e-08,0.0,0 STARLINK-5338,1 55286U 23010T   23173.82056229  .00000007  00000-0  82411-5 0  9990,2 55286  69.9985   2.9047 0003067 274.0669  86.0140 14.99300691 24531,6947.193,96.045,571.188,566.927,0.0
55286.0,STARLINK-5338,PAYLOAD,2023-06-23 22:54:49,14.99305973,0.0003078,69.9984,0.0402,270.5868,89.4939,5.7265e-05,6.07e-06,0.0,0 STARLINK-5338,1 55286U 23010T   23174.95474174  .00000607  00000-0  57265-4 0  9992,2 55286  69.9984   0.0402 0003078 270.5868  89.4939 14.99305973 24708,6947.176,96.044,571.18,566.903,0.0
55286.0,STARLINK-5338,PAYLOAD,2023-06-24 05:19:07,14.99289134,0.0003119,69.9983,359.3662,270.8591,89.2212,7.5041e-05,8.24e-06,0.0,0 STARLINK-5338,1 55286U 23010T   23175.22161853  .00000824  00000-0  75041-4 0  9993,2 55286  69.9983 359.3662 0003119 270.8591  89.2212 14.99289134 24743,6947.228,96.046,571.26,566.927,0.0
55286.0,STARLINK-5338,PAYLOAD,2023-06-24 16:31:38,14.99242756,0.0002993,69.9983,358.1868,262.9355,97.1464,0.00082807,0.00010038,0.0,0 STARLINK-5338,1 55286U 23010T   23175.68864178  .00010038  00000-0  82807-3 0  9998,2 55286  69.9983 358.1868 0002993 262.9355  97.1464 14.99242756 24811,6947.372,96.048,571.316,567.157,0.0
55286.0,STARLINK-5338,PAYLOAD,2023-06-24 21:19:50,14.99300443,0.0003179,69.9982,357.6814,268.55,91.5296,-1.304e-05,-2.53e-06,0.0,0 STARLINK-5338,1 55286U 23010T   23175.88878263 -.00000253  00000-0 -13040-4 0  9994,2 55286  69.9982 357.6814 0003179 268.5500  91.5296 14.99300443 24848,6947.193,96.045,571.267,566.85,0.0
55286.0,STARLINK-5338,PAYLOAD,2023-06-25 21:20:55,14.99306245,0.0003282,69.9983,355.1539,268.7718,91.3066,1.7436e-05,1.19e-06,0.0,0 STARLINK-5338,1 55286U 23010T   23176.88952950  .00000119  00000-0  17436-4 0  9993,2 55286  69.9983 355.1539 0003282 268.7718  91.3066 14.99306245 24999,6947.176,96.044,571.321,566.761,0.0
55286.0,STARLINK-5338,PAYLOAD,2023-06-26 05:21:17,14.99294292,0.0003331,69.9983,354.3116,255.2064,104.8727,6.1377e-05,6.57e-06,0.0,0 STARLINK-5338,1 55286U 23010T   23177.22311862  .00000657  00000-0  61377-4 0  9993,2 55286  69.9983 354.3116 0003331 255.2064 104.8727 14.99294292 25040,6947.212,96.045,571.392,566.763,0.0
55286.0,STARLINK-5338,PAYLOAD,2023-06-27 11:46:39,14.99300116,0.0003326,69.9983,351.1103,269.9453,90.1326,2.3044e-05,1.88e-06,0.0,0 STARLINK-5338,1 55286U 23010T   23178.49073725  .00000188  00000-0  23044-4 0  9994,2 55286  69.9983 351.1103 0003326 269.9453  90.1326 14.99300116 25235,6947.195,96.045,571.37,566.749,0.0
55286.0,STARLINK-5338,PAYLOAD,2023-06-28 16:35:57,14.99298556,0.0003277,69.9987,348.0776,270.429,89.6494,3.1378e-05,2.9e-06,0.0,0 STARLINK-5338,1 55286U 23010T   23179.69163936  .00000290  00000-0  31378-4 0  9994,2 55286  69.9987 348.0776 0003277 270.4290  89.6494 14.99298556 25414,6947.199,96.045,571.341,566.788,0.0
55286.0,STARLINK-5338,PAYLOAD,2023-06-29 18:13:06,14.99303237,0.0003222,69.9989,345.382,270.175,89.904,-1.5629e-06,-1.13e-06,0.0,0 STARLINK-5338,1 55286U 23010T   23180.75910518 -.00000113  00000-0 -15629-5 0  9997,2 55286  69.9989 345.3820 0003222 270.1750  89.9040 14.99303237 25574,6947.185,96.045,571.288,566.811,0.0
55286.0,STARLINK-5338,PAYLOAD,2023-06-30 11:50:28,14.98897313,0.0004094,69.9989,343.5301,274.9546,85.1146,-0.0042096,-0.00050704,0.0,0 STARLINK-5338,1 55286U 23010T   23181.49338905 -.00050704  00000-0 -42096-2 0  9999,2 55286  69.9989 343.5301 0004094 274.9546  85.1146 14.98897313 25680,6948.439,96.071,573.149,567.459,0.0
55286.0,STARLINK-5338,PAYLOAD,2023-06-30 19:51:07,14.98769605,0.0003114,69.9991,342.6887,264.2666,95.8138,-0.0052016,-0.00062315,0.0,0 STARLINK-5338,1 55286U 23010T   23181.82717267 -.00062315  00000-0 -52016-2 0  9992,2 55286  69.9991 342.6887 0003114 264.2666  95.8138 14.98769605 25736,6948.834,96.079,572.863,568.535,0.0
55286.0,STARLINK-5338,PAYLOAD,2023-07-01 03:51:42,14.98718372,0.0003091,69.999,341.8471,264.934,95.1467,-0.0053037,-0.00063442,0.0,0 STARLINK-5338,1 55286U 23010T   23182.16090484 -.00063442  00000-0 -53037-2 0  9991,2 55286  69.9990 341.8471 0003091 264.9340  95.1467 14.98718372 25783,6948.992,96.082,573.005,568.709,0.0
55286.0,STARLINK-5338,PAYLOAD,2023-07-02 03:53:26,14.9862733,0.0003163,69.9987,339.3212,266.6007,93.479,-0.004677,-0.00055885,0.0,0 STARLINK-5338,1 55286U 23010T   23183.16211305 -.00055885  00000-0 -46770-2 0  9997,2 55286  69.9987 339.3212 0003163 266.6007  93.4790 14.98627330 25933,6949.274,96.088,573.337,568.941,0.0
55286.0,STARLINK-5338,PAYLOAD,2023-07-02 13:30:13,14.98461126,0.0002966,69.9987,338.3111,253.0119,107.0715,-0.0021059,-0.00025215,0.0,0 STARLINK-5338,1 55286U 23010T   23183.56265480 -.00025215  00000-0 -21059-2 0  9991,2 55286  69.9987 338.3111 0002966 253.0119 107.0715 14.98461126 25998,6949.787,96.099,573.714,569.591,0.0
55286.0,STARLINK-5338,PAYLOAD,2023-07-03 19:56:47,14.98331201,0.0002854,69.9989,335.1129,261.0454,99.0382,9.627e-05,1.056e-05,0.0,0 STARLINK-5338,1 55286U 23010T   23184.83110578  .00001056  00000-0  96270-4 0  9993,2 55286  69.9989 335.1129 0002854 261.0454  99.0382 14.98331201 26183,6950.189,96.107,574.038,570.071,0.0
55286.0,STARLINK-5338,PAYLOAD,2023-07-04 21:34:56,14.98334711,0.0002986,69.9988,332.4198,263.2262,96.8557,-2.5238e-05,-3.94e-06,0.0,0 STARLINK-5338,1 55286U 23010T   23185.89926517 -.00000394  00000-0 -25238-4 0  9990,2 55286  69.9988 332.4198 0002986 263.2262  96.8557 14.98334711 26341,6950.178,96.107,574.119,569.968,0.0
55286.0,STARLINK-5338,PAYLOAD,2023-07-06 13:38:18,14.98327677,0.000294,69.9992,328.2108,266.6255,93.4568,1.1973e-05,5e-07,0.0,0 STARLINK-5338,1 55286U 23010T   23187.56826667  .00000050  00000-0  11973-4 0  9999,2 55286  69.9992 328.2108 0002940 266.6255  93.4568 14.98327677 26594,6950.2,96.107,574.108,570.022,0.0
55286.0,STARLINK-5338,PAYLOAD,2023-07-07 15:16:27,14.98330334,0.0003001,69.9994,325.5189,266.2715,93.8101,-2.7283e-05,-4.19e-06,0.0,0 STARLINK-5338,1 55286U 23010T   23188.63642550 -.00000419  00000-0 -27283-4 0  9997,2 55286  69.9994 325.5189 0003001 266.2715  93.8101 14.98330334 26750,6950.192,96.107,574.143,569.971,0.0
55286.0,STARLINK-5338,PAYLOAD,2023-07-08 20:06:52,14.98329851,0.0002908,69.9999,322.4887,263.0639,97.019,-4.9505e-06,-1.52e-06,0.0,0 STARLINK-5338,1 55286U 23010T   23189.83810442 -.00000152  00000-0 -49505-5 0  9993,2 55286  69.9999 322.4887 0002908 263.0639  97.0190 14.98329851 26937,6950.193,96.107,574.079,570.037,0.0
55286.0,STARLINK-5338,PAYLOAD,2023-07-10 02:33:25,14.98331581,0.000304,69.9996,319.289,271.0151,89.066,-3.9803e-05,-5.68e-06,0.0,0 STARLINK-5338,1 55286U 23010T   23191.10654585 -.00000568  00000-0 -39803-4 0  9990,2 55286  69.9996 319.2890 0003040 271.0151  89.0660 14.98331581 27126,6950.188,96.107,574.166,569.94,0.0
55286.0,STARLINK-5338,PAYLOAD,2023-07-10 20:10:53,14.98338155,0.000314,69.9995,317.4374,269.4969,90.583,9.5332e-05,1.045e-05,0.0,0 STARLINK-5338,1 55286U 23010T   23191.84089650  .00001045  00000-0  95332-4 0  9994,2 55286  69.9995 317.4374 0003140 269.4969  90.5830 14.98338155 27233,6950.168,96.106,574.215,569.85,0.0
55286.0,STARLINK-5338,PAYLOAD,2023-07-11 07:23:50,14.98318019,0.000238,69.9999,316.2593,273.5734,86.5153,0.00021426,2.464e-05,0.0,0 STARLINK-5338,1 55286U 23010T   23192.30822862  .00002464  00000-0  21426-3 0  9994,2 55286  69.9999 316.2593 0002380 273.5734  86.5153 14.98318019 27306,6950.23,96.108,573.749,570.441,0.0
55286.0,STARLINK-5338,PAYLOAD,2023-07-11 18:36:46,14.98330259,0.0002913,69.9999,315.0808,268.3808,91.7017,8.7934e-05,9.56e-06,0.0,0 STARLINK-5338,1 55286U 23010T   23192.77554079  .00000956  00000-0  87934-4 0  9998,2 55286  69.9999 315.0808 0002913 268.3808  91.7017 14.98330259 27372,6950.192,96.107,574.082,570.032,0.0
55286.0,STARLINK-5338,PAYLOAD,2023-07-13 17:04:40,14.98327891,0.0002934,70.0,310.2002,263.3767,96.7059,-1.678e-05,-2.93e-06,0.0,0 STARLINK-5338,1 55286U 23010T   23194.71158362 -.00000293  00000-0 -16780-4 0  9996,2 55286  70.0000 310.2002 0002934 263.3767  96.7059 14.98327891 27664,6950.199,96.107,574.104,570.025,0.0
